SL-8 R/B                
1 08459U 75112B   26157.60716179  .00000173  00000+0  65609-4 0  9990
2 08459  74.0602 215.3374 0016786 283.5355  76.3929 14.38241224644653
SL-3 R/B                
1 10114U 77057B   26157.80827178  .00012998  00000+0  25326-3 0  9994
2 10114  97.5843 333.8485 0005970 330.5427  29.5485 15.47664836682104
SEASAT 1                
1 10967U 78064A   26157.65680595  .00000347  00000+0  13511-3 0  9990
2 10967 108.0163 312.1846 0002105 241.5516 118.5417 14.46235255519370
SL-14 R/B               
1 11267U 79011B   26157.84747284  .00000538  00000+0  50351-4 0  9993
2 11267  82.5244  11.9674 0017363 117.0799 243.2195 14.92004794542070
SL-8 R/B                
1 11574U 79089B   26157.66271872  .00000249  00000+0  83085-4 0  9993
2 11574  74.0695 286.3396 0014828  74.3565 285.9226 14.42399151448932
SL-14 R/B               
1 11672U 80005B   26157.65073804  .00000487  00000+0  46683-4 0  9993
2 11672  82.5149 222.8343 0014598 222.5186 137.4903 14.91020453489743
SL-8 R/B                
1 12139U 81003B   26157.64368937  .00017312  00000+0  42878-3 0  9990
2 12139  82.9375 207.5660 0250460 228.1522 129.8094 15.13912570328120
SL-3 R/B                
1 12465U 81046B   26157.88561576  .00012458  00000+0  27086-3 0  9999
2 12465  81.2301 182.4765 0019337  71.6445 288.6900 15.43984898452180
SL-3 R/B                
1 12904U 81103B   26157.93111129  .00005755  00000+0  24903-3 0  9999
2 12904  81.1581 108.6809 0012565 352.5547   7.5496 15.22199025986802
SL-3 R/B                
1 13068U 82013B   26157.97179962  .00003742  00000+0  15846-3 0  9995
2 13068  81.1745  56.0472 0020786 236.6827 123.2415 15.22723687417932
SL-3 R/B                
1 13154U 82039B   26157.83342088  .00003562  00000+0  21280-3 0  9994
2 13154  81.1422 113.0512 0030040  29.8394 330.4536 15.10475568395091
SL-3 R/B                
1 13403U 82079B   26157.88540870  .00005828  00000+0  22604-3 0  9997
2 13403  81.1459  87.6708 0022927 221.0843 138.8666 15.25702693391291
SL-14 R/B               
1 13553U 82092B   26157.68766237  .00000471  00000+0  49975-4 0  9993
2 13553  82.5687  58.1273 0020586  10.4752  51.2744 14.86740299342159
